[{"OBJECT_NAME":"FLOCK 4G-13","OBJECT_ID":"2025-009N","EPOCH":"2026-03-09T16:57:12.071808","MEAN_MOTION":15.32770015,"ECCENTRICITY":0.0003801,"INCLINATION":97.4019,"RA_OF_ASC_NODE":151.0918,"ARG_OF_PERICENTER":292.7207,"MEAN_ANOMALY":67.3633,"EPHEMERIS_TYPE":0,"CLASSIFICATION_TYPE":"U","NORAD_CAT_ID":62621,"ELEMENT_SET_NO":999,"REV_AT_EPOCH":6370,"BSTAR":0.0016695386,"MEAN_MOTION_DOT":0.00053076,"MEAN_MOTION_DDOT":0},{"OBJECT_NAME":"STARLINK-33636","OBJECT_ID":"2025-063S","EPOCH":"2026-03-09T23:00:38.795904","MEAN_MOTION":15.30223783,"ECCENTRICITY":0.00015204,"INCLINATION":53.1599,"RA_OF_ASC_NODE":50.9979,"ARG_OF_PERICENTER":102.6105,"MEAN_ANOMALY":257.5066,"EPHEMERIS_TYPE":0,"CLASSIFICATION_TYPE":"U","NORAD_CAT_ID":63379,"ELEMENT_SET_NO":999,"REV_AT_EPOCH":5475,"BSTAR":0.0014159629,"MEAN_MOTION_DOT":0.00041845,"MEAN_MOTION_DDOT":0}]
